{
  "type": "FeatureCollection",
  "features": [
    {
      "type": "Feature",
      "properties": {
        "norad_id": 39227,
        "name": "ARIRANG-5 (KOMPSAT-5)",
        "group": "resource",
        "lat": 70.64408589650171,
        "lon": 161.520279238946,
        "alt_km": 544.644375246734,
        "timestamp": "2025-12-25T19:00:39.005168+00:00",
        "meta_object_name": "ARIRANG-5 (KOMPSAT-5)",
        "meta_object_id": "2013-042A",
        "meta_epoch": "2025-12-25T07:31:04.314432",
        "meta_mean_motion": 15.04484068,
        "meta_eccentricity": 0.00030272,
        "meta_inclination": 97.6164,
        "meta_ra_of_asc_node": 183.4387,
        "meta_arg_of_pericenter": 34.3034,
        "meta_mean_anomaly": 325.8387,
        "meta_ephemeris_type": 0,
        "meta_classification_type": "U",
        "meta_norad_cat_id": 39227,
        "meta_element_set_no": 999,
        "meta_rev_at_epoch": 67771,
        "meta_bstar": 0.00017050997,
        "meta_mean_motion_dot": 2.325e-05,
        "meta_mean_motion_ddot": 0,
        "tle_line1": "1 39227U 13042A   25359.31324438  .00002325  00000+0  17051-3 0  9993",
        "tle_line2": "2 39227  97.6164 183.4387 0003027  34.3034 325.8387 15.04484068677715"
      },
      "geometry": {
        "type": "Point",
        "coordinates": [
          161.520279238946,
          70.64408589650171
        ]
      }
    },
    {
      "type": "Feature",
      "properties": {
        "norad_id": 39418,
        "name": "SKYSAT-A",
        "group": "resource",
        "lat": 58.614190172110575,
        "lon": 37.28822584919439,
        "alt_km": 535.0539548523648,
        "timestamp": "2025-12-25T19:00:39.005179+00:00",
        "meta_object_name": "SKYSAT-A",
        "meta_object_id": "2013-066C",
        "meta_epoch": "2025-12-25T02:51:41.608512",
        "meta_mean_motion": 15.1169067,
        "meta_eccentricity": 0.00216444,
        "meta_inclination": 97.4085,
        "meta_ra_of_asc_node": 48.9509,
        "meta_arg_of_pericenter": 192.0713,
        "meta_mean_anomaly": 168.0001,
        "meta_ephemeris_type": 0,
        "meta_classification_type": "U",
        "meta_norad_cat_id": 39418,
        "meta_element_set_no": 999,
        "meta_rev_at_epoch": 66217,
        "meta_bstar": 0.00020529477,
        "meta_mean_motion_dot": 3.45e-05,
        "meta_mean_motion_ddot": 0,
        "tle_line1": "1 39418U 13066C   25359.11923158  .00003450  00000+0  20529-3 0  9997",
        "tle_line2": "2 39418  97.4085  48.9509 0021644 192.0713 168.0001 15.11690670662179"
      },
      "geometry": {
        "type": "Point",
        "coordinates": [
          37.28822584919439,
          58.614190172110575
        ]
      }
    },
    {
      "type": "Feature",
      "properties": {
        "norad_id": 39419,
        "name": "DUBAISAT-2",
        "group": "resource",
        "lat": 49.58105280574628,
        "lon": -19.03604822492979,
        "alt_km": 541.5495402322576,
        "timestamp": "2025-12-25T19:00:39.005189+00:00",
        "meta_object_name": "DUBAISAT-2",
        "meta_object_id": "2013-066D",
        "meta_epoch": "2025-12-25T06:03:10.844640",
        "meta_mean_motion": 15.08478773,
        "meta_eccentricity": 0.00098632,
        "meta_inclination": 97.4465,
        "meta_ra_of_asc_node": 349.2748,
        "meta_arg_of_pericenter": 272.5023,
        "meta_mean_anomaly": 87.5076,
        "meta_ephemeris_type": 0,
        "meta_classification_type": "U",
        "meta_norad_cat_id": 39419,
        "meta_element_set_no": 999,
        "meta_rev_at_epoch": 66015,
        "meta_bstar": 0.00055421578,
        "meta_mean_motion_dot": 8.59e-05,
        "meta_mean_motion_ddot": 0,
        "tle_line1": "1 39419U 13066D   25359.25220885  .00008590  00000+0  55422-3 0  9990",
        "tle_line2": "2 39419  97.4465 349.2748 0009863 272.5023  87.5076 15.08478773660158"
      },
      "geometry": {
        "type": "Point",
        "coordinates": [
          -19.03604822492979,
          49.58105280574628
        ]
      }
    },
    {
      "type": "Feature",
      "properties": {
        "norad_id": 39574,
        "name": "GPM-CORE",
        "group": "resource",
        "lat": 49.04117855307255,
        "lon": -43.59345657221334,
        "alt_km": 430.6679354350117,
        "timestamp": "2025-12-25T19:00:39.005200+00:00",
        "meta_object_name": "GPM-CORE",
        "meta_object_id": "2014-009C",
        "meta_epoch": "2025-12-25T04:29:34.333152",
        "meta_mean_motion": 15.44656188,
        "meta_eccentricity": 0.00090954,
        "meta_inclination": 64.9727,
        "meta_ra_of_asc_node": 170.9967,
        "meta_arg_of_pericenter": 250.7853,
        "meta_mean_anomaly": 109.2304,
        "meta_ephemeris_type": 0,
        "meta_classification_type": "U",
        "meta_norad_cat_id": 39574,
        "meta_element_set_no": 999,
        "meta_rev_at_epoch": 67093,
        "meta_bstar": 0.00019483801,
        "meta_mean_motion_dot": 8.898e-05,
        "meta_mean_motion_ddot": 0,
        "tle_line1": "1 39574U 14009C   25359.18720293  .00008898  00000+0  19484-3 0  9999",
        "tle_line2": "2 39574  64.9727 170.9967 0009095 250.7853 109.2304 15.44656188670939"
      },
      "geometry": {
        "type": "Point",
        "coordinates": [
          -43.59345657221334,
          49.04117855307255
        ]
      }
    },
    {
      "type": "Feature",
      "properties": {
        "norad_id": 39634,
        "name": "SENTINEL-1A",
        "group": "resource",
        "lat": -67.6145423996068,
        "lon": 164.39957190835045,
        "alt_km": 703.8635828265988,
        "timestamp": "2025-12-25T19:00:39.005210+00:00",
        "meta_object_name": "SENTINEL-1A",
        "meta_object_id": "2014-016A",
        "meta_epoch": "2025-12-25T06:21:10.738368",
        "meta_mean_motion": 14.59200114,
        "meta_eccentricity": 0.0001257,
        "meta_inclination": 98.1801,
        "meta_ra_of_asc_node": 4.3208,
        "meta_arg_of_pericenter": 85.9086,
        "meta_mean_anomaly": 274.2257,
        "meta_ephemeris_type": 0,
        "meta_classification_type": "U",
        "meta_norad_cat_id": 39634,
        "meta_element_set_no": 999,
        "meta_rev_at_epoch": 62465,
        "meta_bstar": 3.9645552e-05,
        "meta_mean_motion_dot": 1.41e-06,
        "meta_mean_motion_ddot": 0,
        "tle_line1": "1 39634U 14016A   25359.26470762  .00000141  00000+0  39646-4 0  9992",
        "tle_line2": "2 39634  98.1801   4.3208 0001257  85.9086 274.2257 14.59200114624651"
      },
      "geometry": {
        "type": "Point",
        "coordinates": [
          164.39957190835045,
          -67.6145423996068
        ]
      }
    },
    {
      "type": "Feature",
      "properties": {
        "norad_id": 39731,
        "name": "KAZEOSAT 1",
        "group": "resource",
        "lat": 39.67845807685342,
        "lon": -101.60295324167525,
        "alt_km": 747.9546838498609,
        "timestamp": "2025-12-25T19:00:39.005220+00:00",
        "meta_object_name": "KAZEOSAT 1",
        "meta_object_id": "2014-024A",
        "meta_epoch": "2025-12-25T06:42:30.482208",
        "meta_mean_motion": 14.42069308,
        "meta_eccentricity": 0.0001227,
        "meta_inclination": 98.3416,
        "meta_ra_of_asc_node": 70.9049,
        "meta_arg_of_pericenter": 97.9902,
        "meta_mean_anomaly": 262.1427,
        "meta_ephemeris_type": 0,
        "meta_classification_type": "U",
        "meta_norad_cat_id": 39731,
        "meta_element_set_no": 999,
        "meta_rev_at_epoch": 61349,
        "meta_bstar": 6.9393266e-05,
        "meta_mean_motion_dot": 1.85e-06,
        "meta_mean_motion_ddot": 0,
        "tle_line1": "1 39731U 14024A   25359.27951947  .00000185  00000+0  69393-4 0  9999",
        "tle_line2": "2 39731  98.3416  70.9049 0001227  97.9902 262.1427 14.42069308613497"
      },
      "geometry": {
        "type": "Point",
        "coordinates": [
          -101.60295324167525,
          39.67845807685342
        ]
      }
    },
    {
      "type": "Feature",
      "properties": {
        "norad_id": 39766,
        "name": "ALOS-2",
        "group": "resource",
        "lat": -21.46053722972176,
        "lon": 97.59018580131374,
        "alt_km": 636.8313938500914,
        "timestamp": "2025-12-25T19:00:39.005231+00:00",
        "meta_object_name": "ALOS-2",
        "meta_object_id": "2014-029A",
        "meta_epoch": "2025-12-25T06:07:23.079072",
        "meta_mean_motion": 14.79467994,
        "meta_eccentricity": 0.00013803,
        "meta_inclination": 97.9221,
        "meta_ra_of_asc_node": 93.923,
        "meta_arg_of_pericenter": 101.0174,
        "meta_mean_anomaly": 259.1193,
        "meta_ephemeris_type": 0,
        "meta_classification_type": "U",
        "meta_norad_cat_id": 39766,
        "meta_element_set_no": 999,
        "meta_rev_at_epoch": 62586,
        "meta_bstar": 0.00025501979,
        "meta_mean_motion_dot": 1.853e-05,
        "meta_mean_motion_ddot": 0,
        "tle_line1": "1 39766U 14029A   25359.25512823  .00001853  00000+0  25502-3 0  9992",
        "tle_line2": "2 39766  97.9221  93.9230 0001380 101.0174 259.1193 14.79467994625862"
      },
      "geometry": {
        "type": "Point",
        "coordinates": [
          97.59018580131374,
          -21.46053722972176
        ]
      }
    }
  ]
}